ISS (ZARYA)             
1 25544U 98067A   26071.15917150  .00009166  00000+0  17667-3 0  9996
2 25544  51.6325  60.1463 0007984 183.4136 176.6799 15.48595269556711
POISK                   
1 36086U 09060A   26071.15917150  .00009166  00000+0  17667-3 0  9994
2 36086  51.6325  60.1463 0007984 183.4136 176.6799 15.48595269554442
CSS (TIANHE)            
1 48274U 21035A   26071.21114556  .00026987  00000+0  31717-3 0  9990
2 48274  41.4662 192.8178 0006768 286.7169  73.2927 15.60804947278003
ISS (NAUKA)             
1 49044U 21066A   26071.15917150  .00009166  00000+0  17667-3 0  9992
2 49044  51.6325  60.1463 0007984 183.4136 176.6799 15.48595269554451
FREGAT DEB              
1 49271U 11037PF  26070.77904030  .00020146  00000+0  28816-1 0  9998
2 49271  51.6527 294.4862 0961250  64.2314 305.4537 12.40266234212955
CSS (WENTIAN)           
1 53239U 22085A   26071.21114556  .00026987  00000+0  31717-3 0  9993
2 53239  41.4662 192.8178 0006768 286.7169  73.2927 15.60804947275614
CSS (MENGTIAN)          
1 54216U 22143A   26071.21114556  .00026987  00000+0  31717-3 0  9994
2 54216  41.4662 192.8178 0006768 286.7169  73.2927 15.60804947275586
PROGRESS-MS 31          
1 64751U 25146A   26071.15917150  .00009166  00000+0  17667-3 0  9997
2 64751  51.6325  60.1463 0007984 183.4136 176.6799 15.48595269554464
TIANZHOU-9              
1 64786U 25149A   26071.21114556  .00026987  00000+0  31717-3 0  9996
2 64786  41.4662 192.8178 0006768 286.7169  73.2927 15.60804947275590
PROGRESS-MS 32          
1 65586U 25204A   26071.15917150  .00009166  00000+0  17667-3 0  9999
2 65586  51.6325  60.1463 0007984 183.4136 176.6799 15.48595269554506
CYGNUS NG-23            
1 65616U 25208A   26071.15917150  .00009166  00000+0  17667-3 0  9997
2 65616  51.6325  60.1463 0007984 183.4136 176.6799 15.48595269554511
YOTSUBA-KULOVER         
1 65941U 98067XN  26071.29696299  .00252337  00000+0  11908-2 0  9995
2 65941  51.6212  43.7570 0005247  86.7909 273.3694 15.81783905 23913
E-KAGAKU-1              
1 65943U 98067XQ  26071.30203425  .00242002  00000+0  11646-2 0  9991
2 65943  51.6239  43.8096 0005792  91.6608 268.5057 15.81386675 23916
HRC MONOBLOCK CAMERA    
1 66052U 98067XR  26071.19492497  .00056559  00000+0  62436-3 0  9993
2 66052  51.6281  52.8869 0003761 103.4656 256.6757 15.62501193 22784
HTV-X1                  
1 66174U 25241A   26071.30993227  .00009098  00000+0  39666-3 0  9997
2 66174  51.6349  60.3824 0006310 180.1494 179.9483 15.22858163 21357
SZ-21 MODULE            
1 66515U 25246C   26070.66510517  .00042405  00000+0  36183-3 0  9996
2 66515  41.4734 191.1990 0001230 305.0978  54.9749 15.68721611 18382
