[{"OBJECT_NAME":"ISS (ZARYA)","OBJECT_ID":"1998-067A","EPOCH":"2026-03-12T03:49:12.417600","MEAN_MOTION":15.48595269,"ECCENTRICITY":0.00079841,"INCLINATION":51.6325,"RA_OF_ASC_NODE":60.1463,"ARG_OF_PERICENTER":183.4136,"MEAN_ANOMALY":176.6799,"EPHEMERIS_TYPE":0,"CLASSIFICATION_TYPE":"U","NORAD_CAT_ID":25544,"ELEMENT_SET_NO":999,"REV_AT_EPOCH":55671,"BSTAR":0.00017667487,"MEAN_MOTION_DOT":9.166e-5,"MEAN_MOTION_DDOT":0},{"OBJECT_NAME":"POISK","OBJECT_ID":"2009-060A","EPOCH":"2026-03-12T03:49:12.417600","MEAN_MOTION":15.48595269,"ECCENTRICITY":0.00079841,"INCLINATION":51.6325,"RA_OF_ASC_NODE":60.1463,"ARG_OF_PERICENTER":183.4136,"MEAN_ANOMALY":176.6799,"EPHEMERIS_TYPE":0,"CLASSIFICATION_TYPE":"U","NORAD_CAT_ID":36086,"ELEMENT_SET_NO":999,"REV_AT_EPOCH":55444,"BSTAR":0.00017667487,"MEAN_MOTION_DOT":9.166e-5,"MEAN_MOTION_DDOT":0},{"OBJECT_NAME":"CSS (TIANHE)","OBJECT_ID":"2021-035A","EPOCH":"2026-03-12T05:04:02.976384","MEAN_MOTION":15.60804947,"ECCENTRICITY":0.00067688,"INCLINATION":41.4662,"RA_OF_ASC_NODE":192.8178,"ARG_OF_PERICENTER":286.7169,"MEAN_ANOMALY":73.2927,"EPHEMERIS_TYPE":0,"CLASSIFICATION_TYPE":"U","NORAD_CAT_ID":48274,"ELEMENT_SET_NO":999,"REV_AT_EPOCH":27800,"BSTAR":0.00031716932,"MEAN_MOTION_DOT":0.00026987,"MEAN_MOTION_DDOT":0},{"OBJECT_NAME":"ISS (NAUKA)","OBJECT_ID":"2021-066A","EPOCH":"2026-03-12T03:49:12.417600","MEAN_MOTION":15.48595269,"ECCENTRICITY":0.00079841,"INCLINATION":51.6325,"RA_OF_ASC_NODE":60.1463,"ARG_OF_PERICENTER":183.4136,"MEAN_ANOMALY":176.6799,"EPHEMERIS_TYPE":0,"CLASSIFICATION_TYPE":"U","NORAD_CAT_ID":49044,"ELEMENT_SET_NO":999,"REV_AT_EPOCH":55445,"BSTAR":0.00017667487,"MEAN_MOTION_DOT":9.166e-5,"MEAN_MOTION_DDOT":0},{"OBJECT_NAME":"FREGAT DEB","OBJECT_ID":"2011-037PF","EPOCH":"2026-03-11T18:41:49.081920","MEAN_MOTION":12.40266234,"ECCENTRICITY":0.09612509,"INCLINATION":51.6527,"RA_OF_ASC_NODE":294.4862,"ARG_OF_PERICENTER":64.2314,"MEAN_ANOMALY":305.4537,"EPHEMERIS_TYPE":0,"CLASSIFICATION_TYPE":"U","NORAD_CAT_ID":49271,"ELEMENT_SET_NO":999,"REV_AT_EPOCH":21295,"BSTAR":0.028816226,"MEAN_MOTION_DOT":0.00020146,"MEAN_MOTION_DDOT":0},{"OBJECT_NAME":"CSS (WENTIAN)","OBJECT_ID":"2022-085A","EPOCH":"2026-03-12T05:04:02.976384","MEAN_MOTION":15.60804947,"ECCENTRICITY":0.00067688,"INCLINATION":41.4662,"RA_OF_ASC_NODE":192.8178,"ARG_OF_PERICENTER":286.7169,"MEAN_ANOMALY":73.2927,"EPHEMERIS_TYPE":0,"CLASSIFICATION_TYPE":"U","NORAD_CAT_ID":53239,"ELEMENT_SET_NO":999,"REV_AT_EPOCH":27561,"BSTAR":0.00031716932,"MEAN_MOTION_DOT":0.00026987,"MEAN_MOTION_DDOT":0},{"OBJECT_NAME":"CSS (MENGTIAN)","OBJECT_ID":"2022-143A","EPOCH":"2026-03-12T05:04:02.976384","MEAN_MOTION":15.60804947,"ECCENTRICITY":0.00067688,"INCLINATION":41.4662,"RA_OF_ASC_NODE":192.8178,"ARG_OF_PERICENTER":286.7169,"MEAN_ANOMALY":73.2927,"EPHEMERIS_TYPE":0,"CLASSIFICATION_TYPE":"U","NORAD_CAT_ID":54216,"ELEMENT_SET_NO":999,"REV_AT_EPOCH":27558,"BSTAR":0.00031716932,"MEAN_MOTION_DOT":0.00026987,"MEAN_MOTION_DDOT":0},{"OBJECT_NAME":"PROGRESS-MS 31","OBJECT_ID":"2025-146A","EPOCH":"2026-03-12T03:49:12.417600","MEAN_MOTION":15.48595269,"ECCENTRICITY":0.00079841,"INCLINATION":51.6325,"RA_OF_ASC_NODE":60.1463,"ARG_OF_PERICENTER":183.4136,"MEAN_ANOMALY":176.6799,"EPHEMERIS_TYPE":0,"CLASSIFICATION_TYPE":"U","NORAD_CAT_ID":64751,"ELEMENT_SET_NO":999,"REV_AT_EPOCH":55446,"BSTAR":0.00017667487,"MEAN_MOTION_DOT":9.166e-5,"MEAN_MOTION_DDOT":0},{"OBJECT_NAME":"TIANZHOU-9","OBJECT_ID":"2025-149A","EPOCH":"2026-03-12T05:04:02.976384","MEAN_MOTION":15.60804947,"ECCENTRICITY":0.00067688,"INCLINATION":41.4662,"RA_OF_ASC_NODE":192.8178,"ARG_OF_PERICENTER":286.7169,"MEAN_ANOMALY":73.2927,"EPHEMERIS_TYPE":0,"CLASSIFICATION_TYPE":"U","NORAD_CAT_ID":64786,"ELEMENT_SET_NO":999,"REV_AT_EPOCH":27559,"BSTAR":0.00031716932,"MEAN_MOTION_DOT":0.00026987,"MEAN_MOTION_DDOT":0},{"OBJECT_NAME":"PROGRESS-MS 32","OBJECT_ID":"2025-204A","EPOCH":"2026-03-12T03:49:12.417600","MEAN_MOTION":15.48595269,"ECCENTRICITY":0.00079841,"INCLINATION":51.6325,"RA_OF_ASC_NODE":60.1463,"ARG_OF_PERICENTER":183.4136,"MEAN_ANOMALY":176.6799,"EPHEMERIS_TYPE":0,"CLASSIFICATION_TYPE":"U","NORAD_CAT_ID":65586,"ELEMENT_SET_NO":999,"REV_AT_EPOCH":55450,"BSTAR":0.00017667487,"MEAN_MOTION_DOT":9.166e-5,"MEAN_MOTION_DDOT":0},{"OBJECT_NAME":"CYGNUS NG-23","OBJECT_ID":"2025-208A","EPOCH":"2026-03-12T03:49:12.417600","MEAN_MOTION":15.48595269,"ECCENTRICITY":0.00079841,"INCLINATION":51.6325,"RA_OF_ASC_NODE":60.1463,"ARG_OF_PERICENTER":183.4136,"MEAN_ANOMALY":176.6799,"EPHEMERIS_TYPE":0,"CLASSIFICATION_TYPE":"U","NORAD_CAT_ID":65616,"ELEMENT_SET_NO":999,"REV_AT_EPOCH":55451,"BSTAR":0.00017667487,"MEAN_MOTION_DOT":9.166e-5,"MEAN_MOTION_DDOT":0},{"OBJECT_NAME":"YOTSUBA-KULOVER","OBJECT_ID":"1998-067XN","EPOCH":"2026-03-12T07:07:37.602336","MEAN_MOTION":15.81783905,"ECCENTRICITY":0.00052479,"INCLINATION":51.6212,"RA_OF_ASC_NODE":43.757,"ARG_OF_PERICENTER":86.7909,"MEAN_ANOMALY":273.3694,"EPHEMERIS_TYPE":0,"CLASSIFICATION_TYPE":"U","NORAD_CAT_ID":65941,"ELEMENT_SET_NO":999,"REV_AT_EPOCH":2391,"BSTAR":0.0011908382,"MEAN_MOTION_DOT":0.00252337,"MEAN_MOTION_DDOT":0},{"OBJECT_NAME":"E-KAGAKU-1","OBJECT_ID":"1998-067XQ","EPOCH":"2026-03-12T07:14:55.759200","MEAN_MOTION":15.81386675,"ECCENTRICITY":0.00057924,"INCLINATION":51.6239,"RA_OF_ASC_NODE":43.8096,"ARG_OF_PERICENTER":91.6608,"MEAN_ANOMALY":268.5057,"EPHEMERIS_TYPE":0,"CLASSIFICATION_TYPE":"U","NORAD_CAT_ID":65943,"ELEMENT_SET_NO":999,"REV_AT_EPOCH":2391,"BSTAR":0.0011646083,"MEAN_MOTION_DOT":0.00242002,"MEAN_MOTION_DDOT":0},{"OBJECT_NAME":"HRC MONOBLOCK CAMERA","OBJECT_ID":"1998-067XR","EPOCH":"2026-03-12T04:40:41.517408","MEAN_MOTION":15.62501193,"ECCENTRICITY":0.00037616,"INCLINATION":51.6281,"RA_OF_ASC_NODE":52.8869,"ARG_OF_PERICENTER":103.4656,"MEAN_ANOMALY":256.6757,"EPHEMERIS_TYPE":0,"CLASSIFICATION_TYPE":"U","NORAD_CAT_ID":66052,"ELEMENT_SET_NO":999,"REV_AT_EPOCH":2278,"BSTAR":0.00062435622,"MEAN_MOTION_DOT":0.00056559,"MEAN_MOTION_DDOT":0},{"OBJECT_NAME":"HTV-X1","OBJECT_ID":"2025-241A","EPOCH":"2026-03-12T07:26:18.148128","MEAN_MOTION":15.22858163,"ECCENTRICITY":0.00063106,"INCLINATION":51.6349,"RA_OF_ASC_NODE":60.3824,"ARG_OF_PERICENTER":180.1494,"MEAN_ANOMALY":179.9483,"EPHEMERIS_TYPE":0,"CLASSIFICATION_TYPE":"U","NORAD_CAT_ID":66174,"ELEMENT_SET_NO":999,"REV_AT_EPOCH":2135,"BSTAR":0.00039665725,"MEAN_MOTION_DOT":9.098e-5,"MEAN_MOTION_DDOT":0},{"OBJECT_NAME":"SZ-21 MODULE","OBJECT_ID":"2025-246C","EPOCH":"2026-03-11T15:57:45.086688","MEAN_MOTION":15.68721611,"ECCENTRICITY":0.00012302,"INCLINATION":41.4734,"RA_OF_ASC_NODE":191.199,"ARG_OF_PERICENTER":305.0978,"MEAN_ANOMALY":54.9749,"EPHEMERIS_TYPE":0,"CLASSIFICATION_TYPE":"U","NORAD_CAT_ID":66515,"ELEMENT_SET_NO":999,"REV_AT_EPOCH":1838,"BSTAR":0.00036182576,"MEAN_MOTION_DOT":0.00042405,"MEAN_MOTION_DDOT":0}]
